start=new Date('2022-04-01T00:00:00.000Z').valueOf();
sats=[{"MEAN_ANOMALY":"288.6465","SITE":"AFETR","EPOCH":"2022-03-31T11:38:46.212576","RCS_SIZE":"LARGE","MEAN_MOTION_DDOT":"0.0000000000000","REV_AT_EPOCH":"4828","ECCENTRICITY":"0.00011810","EPHEMERIS_TYPE":"0","PERIAPSIS":"546.406","BSTAR":"0.00005356900000","SEMIMAJOR_AXIS":"6925.359","COUNTRY_CODE":"US","INCLINATION":"53.0531","ARG_OF_PERICENTER":"71.4652","NORAD_CAT_ID":"48562","OBJECT_ID":"2021-041K","ELEMENT_SET_NO":"999","RA_OF_ASC_NODE":"112.4615","FILE":"3381849","CENTER_NAME":"EARTH","PERIOD":"95.592","MEAN_ELEMENT_THEORY":"SGP4","LAUNCH_DATE":"2021-05-15","DECAY_DATE":null,"TLE_LINE1":"1 48562U 21041K   22090.48525709  .00000517  00000-0  53569-4 0  9991","MEAN_MOTION":"15.06396571","TLE_LINE2":"2 48562  53.0531 112.4615 0001181  71.4652 288.6465 15.06396571 48284","MEAN_MOTION_DOT":"0.00000517","TIME_SYSTEM":"UTC","REF_FRAME":"TEME","OBJECT_NAME":"STARLINK-2187","GP_ID":"200146980","APOAPSIS":"548.042","OBJECT_TYPE":"PAYLOAD","CLASSIFICATION_TYPE":"U"},{"CLASSIFICATION_TYPE":"U","OBJECT_TYPE":"PAYLOAD","APOAPSIS":"548.385","GP_ID":"200145249","OBJECT_NAME":"STARLINK-2188","MEAN_MOTION_DOT":"0.00000619","TIME_SYSTEM":"UTC","REF_FRAME":"TEME","TLE_LINE2":"2 48563  53.0548 112.3868 0001657  64.9114 295.2047 15.06392282 48285","MEAN_MOTION":"15.06392282","TLE_LINE1":"1 48563U 21041L   22090.50368591  .00000619  00000-0  60483-4 0  9995","DECAY_DATE":null,"LAUNCH_DATE":"2021-05-15","MEAN_ELEMENT_THEORY":"SGP4","PERIOD":"95.593","CENTER_NAME":"EARTH","FILE":"3381849","RA_OF_ASC_NODE":"112.3868","ELEMENT_SET_NO":"999","OBJECT_ID":"2021-041L","NORAD_CAT_ID":"48563","ARG_OF_PERICENTER":"64.9114","INCLINATION":"53.0548","SEMIMAJOR_AXIS":"6925.372","COUNTRY_CODE":"US","BSTAR":"0.00006048300000","EPHEMERIS_TYPE":"0","PERIAPSIS":"546.090","ECCENTRICITY":"0.00016570","REV_AT_EPOCH":"4828","EPOCH":"2022-03-31T12:05:18.462624","RCS_SIZE":"LARGE","MEAN_MOTION_DDOT":"0.0000000000000","SITE":"AFETR","MEAN_ANOMALY":"295.2047"},{"INCLINATION":"53.0527","SEMIMAJOR_AXIS":"6925.369","COUNTRY_CODE":"US","BSTAR":"0.00014596000000","EPHEMERIS_TYPE":"0","PERIAPSIS":"546.140","ECCENTRICITY":"0.00015800","FILE":"3381849","RA_OF_ASC_NODE":"112.4188","ELEMENT_SET_NO":"999","OBJECT_ID":"2021-041M","NORAD_CAT_ID":"48564","ARG_OF_PERICENTER":"54.6645","SITE":"AFETR","MEAN_ANOMALY":"305.4492","REV_AT_EPOCH":"4828","MEAN_MOTION_DDOT":"0.0000000000000","RCS_SIZE":"LARGE","EPOCH":"2022-03-31T11:54:41.936544","MEAN_MOTION_DOT":"0.00001893","TIME_SYSTEM":"UTC","REF_FRAME":"TEME","TLE_LINE2":"2 48564  53.0527 112.4188 0001580  54.6645 305.4492 15.06393386 48283","MEAN_MOTION":"15.06393386","CLASSIFICATION_TYPE":"U","OBJECT_TYPE":"PAYLOAD","APOAPSIS":"548.328","GP_ID":"200146494","OBJECT_NAME":"STARLINK-2190","LAUNCH_DATE":"2021-05-15","MEAN_ELEMENT_THEORY":"SGP4","PERIOD":"95.593","CENTER_NAME":"EARTH","TLE_LINE1":"1 48564U 21041M   22090.49631871  .00001893  00000-0  14596-3 0  9996","DECAY_DATE":null},{"CENTER_NAME":"EARTH","PERIOD":"95.592","LAUNCH_DATE":"2021-05-15","MEAN_ELEMENT_THEORY":"SGP4","DECAY_DATE":null,"TLE_LINE1":"1 48565U 21041N   22090.55897284  .00002368  00000-0  17785-3 0  9997","MEAN_MOTION":"15.06395494","MEAN_MOTION_DOT":"0.00002368","REF_FRAME":"TEME","TIME_SYSTEM":"UTC","TLE_LINE2":"2 48565  53.0536 112.1357 0001599  70.8237 289.2925 15.06395494 48749","OBJECT_NAME":"STARLINK-2191","GP_ID":"200156121","APOAPSIS":"548.335","CLASSIFICATION_TYPE":"U","OBJECT_TYPE":"PAYLOAD","SITE":"AFETR","MEAN_ANOMALY":"289.2925","EPOCH":"2022-03-31T13:24:55.253376","RCS_SIZE":"LARGE","MEAN_MOTION_DDOT":"0.0000000000000","REV_AT_EPOCH":"4874","ECCENTRICITY":"0.00015990","BSTAR":"0.00017785000000","EPHEMERIS_TYPE":"0","PERIAPSIS":"546.120","INCLINATION":"53.0536","COUNTRY_CODE":"US","SEMIMAJOR_AXIS":"6925.362","ARG_OF_PERICENTER":"70.8237","NORAD_CAT_ID":"48565","ELEMENT_SET_NO":"999","OBJECT_ID":"2021-041N","RA_OF_ASC_NODE":"112.1357","FILE":"3382143"},{"OBJECT_ID":"2021-041P","ELEMENT_SET_NO":"999","FILE":"3382154","RA_OF_ASC_NODE":"121.1303","ARG_OF_PERICENTER":"59.1019","NORAD_CAT_ID":"48566","SEMIMAJOR_AXIS":"6925.324","COUNTRY_CODE":"US","INCLINATION":"53.0534","ECCENTRICITY":"0.00016210","EPHEMERIS_TYPE":"0","PERIAPSIS":"546.066","BSTAR":"0.00014937000000","REV_AT_EPOCH":"4858","EPOCH":"2022-03-31T18:46:00.195744","RCS_SIZE":"MEDIUM","MEAN_MOTION_DDOT":"0.0000000000000","MEAN_ANOMALY":"301.0129","SITE":"AFETR","APOAPSIS":"548.311","OBJECT_TYPE":"PAYLOAD","CLASSIFICATION_TYPE":"U","OBJECT_NAME":"STARLINK-2214","GP_ID":"200156144","TLE_LINE2":"2 48566  53.0534 121.1303 0001621  59.1019 301.0129 15.06408114 48588","MEAN_MOTION_DOT":"0.00001944","REF_FRAME":"TEME","TIME_SYSTEM":"UTC","MEAN_MOTION":"15.06408114","DECAY_DATE":null,"TLE_LINE1":"1 48566U 21041P   22090.78194671  .00001944  00000-0  14937-3 0  9998","PERIOD":"95.592","MEAN_ELEMENT_THEORY":"SGP4","LAUNCH_DATE":"2021-05-15","CENTER_NAME":"EARTH"},{"SEMIMAJOR_AXIS":"6925.380","COUNTRY_CODE":"US","INCLINATION":"53.0539","EPHEMERIS_TYPE":"0","PERIAPSIS":"546.180","BSTAR":"0.00004043900000","ECCENTRICITY":"0.00015380","FILE":"3381849","RA_OF_ASC_NODE":"122.2606","OBJECT_ID":"2021-041Q","ELEMENT_SET_NO":"999","NORAD_CAT_ID":"48567","ARG_OF_PERICENTER":"61.7196","MEAN_ANOMALY":"298.3948","SITE":"AFETR","REV_AT_EPOCH":"4814","MEAN_MOTION_DDOT":"0.0000000000000","RCS_SIZE":"LARGE","EPOCH":"2022-03-31T12:41:08.375424","TLE_LINE2":"2 48567  53.0539 122.2606 0001538  61.7196 298.3948 15.06389741 48147","MEAN_MOTION_DOT":"0.00000321","REF_FRAME":"TEME","TIME_SYSTEM":"UTC","MEAN_MOTION":"15.06389741","OBJECT_TYPE":"PAYLOAD","CLASSIFICATION_TYPE":"U","APOAPSIS":"548.310","GP_ID":"200145743","OBJECT_NAME":"STARLINK-2215","MEAN_ELEMENT_THEORY":"SGP4","LAUNCH_DATE":"2021-05-15","PERIOD":"95.593","CENTER_NAME":"EARTH","TLE_LINE1":"1 48567U 21041Q   22090.52856916  .00000321  00000-0  40439-4 0  9993","DECAY_DATE":null},{"EPOCH":"2022-03-31T11:22:50.769408","RCS_SIZE":"MEDIUM","MEAN_MOTION_DDOT":"0.0000000000000","REV_AT_EPOCH":"4827","SITE":"AFETR","MEAN_ANOMALY":"295.0741","NORAD_CAT_ID":"48568","ARG_OF_PERICENTER":"65.0400","RA_OF_ASC_NODE":"112.5088","FILE":"3381849","ELEMENT_SET_NO":"999","OBJECT_ID":"2021-041R","BSTAR":"0.00009745500000","EPHEMERIS_TYPE":"0","PERIAPSIS":"546.184","ECCENTRICITY":"0.00014620","INCLINATION":"53.0554","SEMIMAJOR_AXIS":"6925.331","COUNTRY_CODE":"US","TLE_LINE1":"1 48568U 21041R   22090.47419872  .00001171  00000-0  97455-4 0  9998","DECAY_DATE":null,"CENTER_NAME":"EARTH","LAUNCH_DATE":"2021-05-15","MEAN_ELEMENT_THEORY":"SGP4","PERIOD":"95.592","GP_ID":"200146001","OBJECT_NAME":"STARLINK-2217","CLASSIFICATION_TYPE":"U","OBJECT_TYPE":"PAYLOAD","APOAPSIS":"548.209","MEAN_MOTION":"15.06405699","TIME_SYSTEM":"UTC","MEAN_MOTION_DOT":"0.00001171","REF_FRAME":"TEME","TLE_LINE2":"2 48568  53.0554 112.5088 0001462  65.0400 295.0741 15.06405699 48272"},{"GP_ID":"200156135","OBJECT_NAME":"STARLINK-2219","OBJECT_TYPE":"PAYLOAD","CLASSIFICATION_TYPE":"U","APOAPSIS":"548.490","MEAN_MOTION":"15.06392045","TLE_LINE2":"2 48569  53.0544 111.2148 0001808  63.5656 296.5518 15.06392045 48723","REF_FRAME":"TEME","MEAN_MOTION_DOT":"0.00000508","TIME_SYSTEM":"UTC","TLE_LINE1":"1 48569U 21041S   22090.76539061  .00000508  00000-0  52990-4 0  9992","DECAY_DATE":null,"CENTER_NAME":"EARTH","MEAN_ELEMENT_THEORY":"SGP4","LAUNCH_DATE":"2021-05-15","PERIOD":"95.593","NORAD_CAT_ID":"48569","ARG_OF_PERICENTER":"63.5656","FILE":"3382144","RA_OF_ASC_NODE":"111.2148","OBJECT_ID":"2021-041S","ELEMENT_SET_NO":"999","PERIAPSIS":"545.986","EPHEMERIS_TYPE":"0","BSTAR":"0.00005299000000","ECCENTRICITY":"0.00018080","SEMIMAJOR_AXIS":"6925.373","COUNTRY_CODE":"US","INCLINATION":"53.0544","RCS_SIZE":"LARGE","EPOCH":"2022-03-31T18:22:09.748704","MEAN_MOTION_DDOT":"0.0000000000000","REV_AT_EPOCH":"4872","MEAN_ANOMALY":"296.5518","SITE":"AFETR"},{"DECAY_DATE":null,"TLE_LINE1":"1 48570U 21041T   22090.81974747  .00001822  00000-0  14115-3 0  9990","CENTER_NAME":"EARTH","PERIOD":"95.592","MEAN_ELEMENT_THEORY":"SGP4","LAUNCH_DATE":"2021-05-15","OBJECT_NAME":"STARLINK-2220","GP_ID":"200156159","APOAPSIS":"548.320","OBJECT_TYPE":"PAYLOAD","CLASSIFICATION_TYPE":"U","MEAN_MOTION":"15.06402358","TLE_LINE2":"2 48570  53.0545 120.9508 0001608  61.3573 298.7578 15.06402358 48588","MEAN_MOTION_DOT":"0.00001822","TIME_SYSTEM":"UTC","REF_FRAME":"TEME","MEAN_MOTION_DDOT":"0.0000000000000","RCS_SIZE":"LARGE","EPOCH":"2022-03-31T19:40:26.181408","REV_AT_EPOCH":"4858","MEAN_ANOMALY":"298.7578","SITE":"AFETR","ARG_OF_PERICENTER":"61.3573","NORAD_CAT_ID":"48570","OBJECT_ID":"2021-041T","ELEMENT_SET_NO":"999","FILE":"3382145","RA_OF_ASC_NODE":"120.9508","ECCENTRICITY":"0.00016080","EPHEMERIS_TYPE":"0","PERIAPSIS":"546.093","BSTAR":"0.00014115000000","SEMIMAJOR_AXIS":"6925.341","COUNTRY_CODE":"US","INCLINATION":"53.0545"},{"BSTAR":"0.00065525000000","PERIAPSIS":"546.005","EPHEMERIS_TYPE":"0","ECCENTRICITY":"0.00017010","INCLINATION":"53.0526","SEMIMAJOR_AXIS":"6925.318","COUNTRY_CODE":"US","NORAD_CAT_ID":"48571","ARG_OF_PERICENTER":"63.5217","FILE":"3382144","RA_OF_ASC_NODE":"122.1252","ELEMENT_SET_NO":"999","OBJECT_ID":"2021-041U","SITE":"AFETR","MEAN_ANOMALY":"296.5946","EPOCH":"2022-03-31T13:28:54.582240","RCS_SIZE":"LARGE","MEAN_MOTION_DDOT":"0.0000000000000","REV_AT_EPOCH":"4855","MEAN_MOTION":"15.06409870","MEAN_MOTION_DOT":"0.00009494","REF_FRAME":"TEME","TIME_SYSTEM":"UTC","TLE_LINE2":"2 48571  53.0526 122.1252 0001701  63.5217 296.5946 15.06409870 48559","GP_ID":"200156134","OBJECT_NAME":"STARLINK-2221","CLASSIFICATION_TYPE":"U","OBJECT_TYPE":"PAYLOAD","APOAPSIS":"548.361","CENTER_NAME":"EARTH","LAUNCH_DATE":"2021-05-15","MEAN_ELEMENT_THEORY":"SGP4","PERIOD":"95.592","TLE_LINE1":"1 48571U 21041U   22090.56174285  .00009494  00000-0  65525-3 0  9996","DECAY_DATE":null}];
